norad_id,name,regime,epoch,line1,line2,inclination,eccentricity,mean_motion,raan,arg_pericenter,mean_anomaly
65486,SHIYAN 29,IGO,25271.95971657,1 65486U 25196A   25271.95971657 -.00000125  00000-0  00000-0 0  1113,2 65486  28.5364  21.8242 0078957 126.9736 309.0104  0.99059547   261,28.5364,0.0078957,0.99059547,21.8242,126.9736,309.0104
65486,SHIYAN 29,IGO,25272.71764993,1 65486U 25196A   25272.71764993 -.00000104  00000-0  00000+0 0   677,2 65486  28.5372  21.8149 0078987 127.0253 219.2566  0.99059130   267,28.5372,0.0078987,0.9905913,21.8149,127.0253,219.2566
65486,SHIYAN 29,IGO,25274.31884758,1 65486U 25196A   25274.31884758 -.00000252  00000-0  00000-0 0  1190,2 65486  28.5396  21.7935 0023727 181.8155  20.0775  1.00082617   287,28.5396,0.0023727,1.00082617,21.7935,181.8155,20.0775
65486,SHIYAN 29,IGO,25274.45707431,1 65486U 25196A   25274.45707431 -.00000252  00000-0  00000+0 0   689,2 65486  28.5369  21.7882 0023814 181.7349  69.9660  1.00081232   286,28.5369,0.0023814,1.00081232,21.7882,181.7349,69.966
65486,SHIYAN 29,IGO,25274.82896116,1 65486U 25196A   25274.82896116 -.00000249  00000-0  00000+0 0   696,2 65486  28.5395  21.7894 0023841 181.9590 203.7314  1.00078247   295,28.5395,0.0023841,1.00078247,21.7894,181.959,203.7314
65486,SHIYAN 29,IGO,25274.88324999,1 65486U 25196A   25274.88324999 -.00000249  00000-0  00000-0 0  1329,2 65486  28.5395  21.7888 0023848 181.9716 223.2787  1.00078214   290,28.5395,0.0023848,1.00078214,21.7888,181.9716,223.2787
65486,SHIYAN 29,IGO,25275.18515652,1 65486U 25196A   25275.18515652 -.00000247  00000-0  00000+0 0   710,2 65486  28.5398  21.7849 0023879 182.0378 331.9872  1.00078081   294,28.5398,0.0023879,1.00078081,21.7849,182.0378,331.9872
65486,SHIYAN 29,IGO,25275.57397587,1 65486U 25196A   25275.57397587 -.00000245  00000-0  00000+0 0   772,2 65486  28.5402  21.7801 0023906 182.0670 112.0466  1.00077874   290,28.5402,0.0023906,1.00077874,21.7801,182.067,112.0466
65486,SHIYAN 29,IGO,25275.87787369,1 65486U 25196A   25275.87787369 -.00000244  00000-0  00000-0 0  1407,2 65486  28.5405  21.7762 0023929 182.1204 221.4855  1.00077728   305,28.5405,0.0023929,1.00077728,21.7762,182.1204,221.4855
65486,SHIYAN 29,IGO,25276.22802815,1 65486U 25196A   25276.22802815 -.00000242  00000-0  00000+0 0   799,2 65486  28.5409  21.7719 0023959 182.2212 347.5418  1.00077538   308,28.5409,0.0023959,1.00077538,21.7719,182.2212,347.5418
65486,SHIYAN 29,IGO,25276.59580535,1 65486U 25196A   25276.59580535 -.00000241  00000-0  00000-0 0  1466,2 65486  28.5413  21.7672 0023987 182.2684 120.0016  1.00077356   301,28.5413,0.0023987,1.00077356,21.7672,182.2684,120.0016
65486,SHIYAN 29,IGO,25276.67127056,1 65486U 25196A   25276.67127056 -.00000240  00000-0  00000-0 0  1470,2 65486  28.5414  21.7663 0023993 182.2811 147.1783  1.00077318   300,28.5414,0.0023993,1.00077318,21.7663,182.2811,147.1783
65486,SHIYAN 29,IGO,25277.67244479,1 65486U 25196A   25277.67244479 -.00000236  00000-0  00000+0 0   811,2 65486  28.5426  21.7538 0024061 182.5252 147.6464  1.00076812   313,28.5426,0.0024061,1.00076812,21.7538,182.5252,147.6464
65486,SHIYAN 29,IGO,25277.74481279,1 65486U 25196A   25277.74481279 -.00000236  00000-0  00000+0 0   821,2 65486  28.5427  21.7530 0024066 182.5419 173.7032  1.00076778   318,28.5427,0.0024066,1.00076778,21.753,182.5419,173.7032
65486,SHIYAN 29,IGO,25278.12333729,1 65486U 25196A   25278.12333729 -.00000235  00000-0  00000+0 0   830,2 65486  28.5432  21.7482 0024080 182.6684 309.9546  1.00076605   324,28.5432,0.002408,1.00076605,21.7482,182.6684,309.9546
65486,SHIYAN 29,IGO,25278.55220674,1 65486U 25196A   25278.55220674 -.00000233  00000-0  00000+0 0   840,2 65486  28.5438  21.7428 0024104 182.7743 104.3647  1.00076391   325,28.5438,0.0024104,1.00076391,21.7428,182.7743,104.3647
65486,SHIYAN 29,IGO,25278.62726220,1 65486U 25196A   25278.62726220 -.00000233  00000-0  00000+0 0   857,2 65486  28.5439  21.7419 0024110 182.7894 131.3912  1.00076356   326,28.5439,0.002411,1.00076356,21.7419,182.7894,131.3912
65486,SHIYAN 29,IGO,25279.21531800,1 65486U 25196A   25279.21531800 -.00000231  00000-0  00000+0 0   871,2 65486  28.5446  21.7347 0024122 182.9838 343.0652  1.00076092   338,28.5446,0.0024122,1.00076092,21.7347,182.9838,343.0652
65486,SHIYAN 29,IGO,25279.30035957,1 65486U 25196A   25279.30035957 -.00000231  00000-0  00000+0 0   884,2 65486  28.5447  21.7336 0024123 183.0093  13.6789  1.00076052   330,28.5447,0.0024123,1.00076052,21.7336,183.0093,13.6789
65486,SHIYAN 29,IGO,25279.61046255,1 65486U 25196A   25279.61046255 -.00000266  00000-0  00000+0 0   890,2 65486  28.5437  21.7291 0011229 174.9592 133.6886  1.00274414   338,28.5437,0.0011229,1.00274414,21.7291,174.9592,133.6886
65486,SHIYAN 29,IGO,25279.84245648,1 65486U 25196A   25279.84245648 -.00000266  00000-0  00000-0 0  1692,2 65486  28.5440  21.7263 0011143 174.3847 218.0163  1.00276028   343,28.544,0.0011143,1.00276028,21.7263,174.3847,218.0163
65486,SHIYAN 29,IGO,25280.64406339,1 65486U 25196A   25280.64406339 -.00000269  00000-0  00000+0 0   925,2 65486  28.5450  21.7163 0011131 174.9569 146.8281  1.00275680   349,28.545,0.0011131,1.0027568,21.7163,174.9569,146.8281
65486,SHIYAN 29,IGO,25280.64406340,1 65486U 25196A   25280.64406340 -.00000269  00000-0  00000-0 0  1727,2 65486  28.5450  21.7163 0011131 174.9569 146.8281  1.00275680   349,28.545,0.0011131,1.0027568,21.7163,174.9569,146.8281
65486,SHIYAN 29,IGO,25281.27490432,1 65486U 25196A   25281.27490432 -.00000270  00000-0  00000-0 0  1735,2 65486  28.5458  21.7084 0011102 175.3387  14.1826  1.00275449   356,28.5458,0.0011102,1.00275449,21.7084,175.3387,14.1826
65486,SHIYAN 29,IGO,25281.32559639,1 65486U 25196A   25281.32559639 -.00000270  00000-0  00000+0 0   947,2 65486  28.5458  21.7077 0011101 175.3772  32.4440  1.00275425   354,28.5458,0.0011101,1.00275425,21.7077,175.3772,32.444
65486,SHIYAN 29,IGO,25282.22221670,1 65486U 25196A   25282.22221670 -.00000273  00000-0  00000+0 0   952,2 65486  28.5469  21.6965 0011066 175.8796 355.6247  1.00275117   366,28.5469,0.0011066,1.00275117,21.6965,175.8796,355.6247
65486,SHIYAN 29,IGO,25282.22221671,1 65486U 25196A   25282.22221671 -.00000273  00000-0  00000-0 0  1753,2 65486  28.5469  21.6965 0011066 175.8796 355.6247  1.00275117   366,28.5469,0.0011066,1.00275117,21.6965,175.8796,355.6247
65486,SHIYAN 29,IGO,25282.62470267,1 65486U 25196A   25282.62470267 -.00000274  00000-0  00000-0 0  1799,2 65486  28.5474  21.6914 0011053 176.1811 140.6214  1.00274991   369,28.5474,0.0011053,1.00274991,21.6914,176.1811,140.6214
65486,SHIYAN 29,IGO,25282.76600494,1 65486U 25196A   25282.76600494 -.00000274  00000-0  00000+0 0   968,2 65486  28.5476  21.6897 0011047 176.2603 191.5528  1.00274953   376,28.5476,0.0011047,1.00274953,21.6897,176.2603,191.5528
65486,SHIYAN 29,IGO,25282.76600495,1 65486U 25196A   25282.76600495 -.00000274  00000-0  00000-0 0  1826,2 65486  28.5476  21.6897 0011047 176.2603 191.5528  1.00274953   376,28.5476,0.0011047,1.00274953,21.6897,176.2603,191.5528
65486,SHIYAN 29,IGO,25283.22370352,1 65486U 25196A   25283.22370352 -.00000276  00000-0  00000+0 0   970,2 65486  28.5481  21.6840 0011007 176.4696 356.5738  1.00274820   379,28.5481,0.0011007,1.0027482,21.684,176.4696,356.5738
65486,SHIYAN 29,IGO,25283.29494536,1 65486U 25196A   25283.29494536 -.00000276  00000-0  00000-0 0  1846,2 65486  28.5482  21.6831 0011001 176.4987  22.2630  1.00274804   377,28.5482,0.0011001,1.00274804,21.6831,176.4987,22.263
65486,SHIYAN 29,IGO,25283.33983303,1 65486U 25196A   25283.33983303 -.00000276  00000-0  00000+0 0   989,2 65486  28.5482  21.6825 0010998 176.5203  38.4459  1.00274794   372,28.5482,0.0010998,1.00274794,21.6825,176.5203,38.4459
65486,SHIYAN 29,IGO,25283.81095858,1 65486U 25196A   25283.81095858 -.00000277  00000-0  00000-0 0  1872,2 65486  28.5488  21.6766 0010976 176.8314 208.2116  1.00274666   380,28.5488,0.0010976,1.00274666,21.6766,176.8314,208.2116
65486,SHIYAN 29,IGO,25284.08547058,1 65486U 25196A   25284.08547058 -.00000277  00000-0  00000+0 0  1011,2 65486  28.5492  21.6732 0010949 176.9270 307.2153  1.00274596   383,28.5492,0.0010949,1.00274596,21.6732,176.927,307.2153
65486,SHIYAN 29,IGO,25284.26449094,1 65486U 25196A   25284.26449094 -.00000278  00000-0  00000-0 0  1890,2 65486  28.5494  21.6709 0010932 176.9735  11.7953  1.00274554   386,28.5494,0.0010932,1.00274554,21.6709,176.9735,11.7953
65486,SHIYAN 29,IGO,25284.82250929,1 65486U 25196A   25284.82250929 -.00000279  00000-0  00000-0 0  1946,2 65486  28.5501  21.6640 0010892 177.2927 212.9206  1.00274432   393,28.5501,0.0010892,1.00274432,21.664,177.2927,212.9206
65486,SHIYAN 29,IGO,25285.08519516,1 65486U 25196A   25285.08519516 -.00000279  00000-0  00000-0 0  1956,2 65486  28.5504  21.6607 0010867 177.3596 307.6836  1.00274373   399,28.5504,0.0010867,1.00274373,21.6607,177.3596,307.6836
65486,SHIYAN 29,IGO,25285.65125832,1 65486U 25196A   25285.65125832 -.00000279  00000-0  00000-0 0  2000,2 65486  28.5511  21.6536 0010816 177.5681 151.8232  1.00274269   392,28.5511,0.0010816,1.00274269,21.6536,177.5681,151.8232
65486,SHIYAN 29,IGO,25285.82912631,1 65486U 25196A   25285.82912631 -.00000280  00000-0  00000-0 0  2046,2 65486  28.5513  21.6514 0010800 177.6565 215.9452  1.00274233   404,28.5513,0.00108,1.00274233,21.6514,177.6565,215.9452
65486,SHIYAN 29,IGO,25286.25672779,1 65486U 25196A   25286.25672779 -.00000280  00000-0  00000-0 0  2084,2 65486  28.5518  21.6461 0010765 177.7060  10.2597  1.00274149   403,28.5518,0.0010765,1.00274149,21.6461,177.706,10.2597
65486,SHIYAN 29,IGO,25286.63035523,1 65486U 25196A   25286.63035523 -.00000280  00000-0  00000-0 0  2110,2 65486  28.5522  21.6414 0010728 177.8367 145.0077  1.00274099   400,28.5522,0.0010728,1.00274099,21.6414,177.8367,145.0077
65486,SHIYAN 29,IGO,25286.69277458,1 65486U 25196A   25286.69277458 -.00000280  00000-0  00000+0 0  1119,2 65486  28.5523  21.6407 0010720 177.8648 167.5129  1.00274087   401,28.5523,0.001072,1.00274087,21.6407,177.8648,167.5129
